[
  {
    "name": "ONEWEB-0158",
    "noradId": "48054",
    "line1": "1 48054U 21025N   26164.92886050 -.00000256  00000+0 -73550-3 0  9995",
    "line2": "2 48054  87.8957 320.8658 0001596  93.8325 266.2986 13.13471224253209"
  },
  {
    "name": "ONEWEB-0157",
    "noradId": "48055",
    "line1": "1 48055U 21025P   26164.87808178  .00000308  00000+0  80748-3 0  9998",
    "line2": "2 48055  87.8956 320.8817 0002018 106.5165 253.6186 13.13469570253135"
  },
  {
    "name": "ONEWEB-0162",
    "noradId": "48056",
    "line1": "1 48056U 21025Q   26164.93041105 -.00000223  00000+0 -64677-3 0  9996",
    "line2": "2 48056  87.8955 320.8720 0001991  94.6328 265.5029 13.13470129253113"
  },
  {
    "name": "ONEWEB-0155",
    "noradId": "48057",
    "line1": "1 48057U 21025R   26164.93731783 -.00000155  00000+0 -46028-3 0  9999",
    "line2": "2 48057  87.8955 320.8669 0001790 101.7889 258.3441 13.13470009253255"
  },
  {
    "name": "ONEWEB-0149",
    "noradId": "48058",
    "line1": "1 48058U 21025S   26164.88315770  .00000333  00000+0  87598-3 0  9991",
    "line2": "2 48058  87.8958 320.8811 0002024  93.6729 266.4631 13.13469589253051"
  },
  {
    "name": "ONEWEB-0148",
    "noradId": "48059",
    "line1": "1 48059U 21025T   26164.92208209 -.00000286  00000+0 -81897-3 0  9990",
    "line2": "2 48059  87.8951 320.8804 0002427  94.3952 265.7455 13.13469960253183"
  },
  {
    "name": "ONEWEB-0160",
    "noradId": "48060",
    "line1": "1 48060U 21025U   26164.93900949 -.00000067  00000+0 -21830-3 0  9991",
    "line2": "2 48060  87.8950 320.8731 0001490  73.0265 287.1028 13.13470960253134"
  },
  {
    "name": "ONEWEB-0163",
    "noradId": "48061",
    "line1": "1 48061U 21025V   26164.92376772 -.00000224  00000+0 -64852-3 0  9998",
    "line2": "2 48061  87.8959 320.8706 0001923 104.5432 255.5910 13.13470664253256"
  },
  {
    "name": "ONEWEB-0159",
    "noradId": "48062",
    "line1": "1 48062U 21025W   26164.91530725 -.00000234  00000+0 -67593-3 0  9994",
    "line2": "2 48062  87.8961 320.8652 0001895 104.0637 256.0703 13.13470113253176"
  },
  {
    "name": "ONEWEB-0164",
    "noradId": "48063",
    "line1": "1 48063U 21025X   26164.89669007  .00000152  00000+0  38088-3 0  9992",
    "line2": "2 48063  87.8961 320.8756 0001741  94.4805 265.6523 13.13469487253157"
  },
  {
    "name": "ONEWEB-0167",
    "noradId": "48064",
    "line1": "1 48064U 21025Y   26164.92460599 -.00000308  00000+0 -87809-3 0  9992",
    "line2": "2 48064  87.8951 320.8805 0001620 117.7137 242.4157 13.13468497253140"
  },
  {
    "name": "ONEWEB-0166",
    "noradId": "48065",
    "line1": "1 48065U 21025Z   26164.94746431  .00000162  00000+0  40746-3 0  9992",
    "line2": "2 48065  87.8960 320.8469 0002017  97.0152 263.1206 13.13471615253225"
  },
  {
    "name": "ONEWEB-0151",
    "noradId": "48066",
    "line1": "1 48066U 21025AA  26164.94916495  .00000215  00000+0  55359-3 0  9997",
    "line2": "2 48066  87.8951 320.8635 0001720  99.2169 260.9155 13.13470503253169"
  },
  {
    "name": "ONEWEB-0170",
    "noradId": "48067",
    "line1": "1 48067U 21025AB  26164.88145575  .00000337  00000+0  88894-3 0  9999",
    "line2": "2 48067  87.8952 320.8789 0001341  92.6922 267.4361 13.13470067253115"
  },
  {
    "name": "ONEWEB-0168",
    "noradId": "48068",
    "line1": "1 48068U 21025AC  26164.94239540  .00000014  00000+0  38401-5 0  9996",
    "line2": "2 48068  87.8959 320.8664 0001953 100.7035 259.4314 13.13470165253130"
  },
  {
    "name": "ONEWEB-0173",
    "noradId": "48069",
    "line1": "1 48069U 21025AD  26164.93393085 -.00000208  00000+0 -60521-3 0  9994",
    "line2": "2 48069  87.8951 320.8700 0001872 108.2838 251.8495 13.13470048253370"
  },
  {
    "name": "ONEWEB-0171",
    "noradId": "48070",
    "line1": "1 48070U 21025AE  26164.89499911  .00000220  00000+0  56824-3 0  9999",
    "line2": "2 48070  87.8950 320.8858 0001690  96.7579 263.3742 13.13469878253187"
  },
  {
    "name": "ONEWEB-0172",
    "noradId": "48071",
    "line1": "1 48071U 21025AF  26164.87467847  .00000237  00000+0  61508-3 0  9994",
    "line2": "2 48071  87.8956 320.8797 0001760 101.5645 258.5682 13.13470948254071"
  },
  {
    "name": "ONEWEB-0174",
    "noradId": "48072",
    "line1": "1 48072U 21025AG  26164.93224382 -.00000183  00000+0 -53564-3 0  9992",
    "line2": "2 48072  87.8954 320.8678 0001970  96.7838 263.3516 13.13470870253400"
  },
  {
    "name": "ONEWEB-0175",
    "noradId": "48073",
    "line1": "1 48073U 21025AH  26164.81036122  .00000332  00000+0  87377-3 0  9996",
    "line2": "2 48073  87.8961 320.8760 0001483 100.3996 259.7300 13.13469958253042"
  },
  {
    "name": "ONEWEB-0177",
    "noradId": "48074",
    "line1": "1 48074U 21025AJ  26164.89838126  .00000145  00000+0  36127-3 0  9998",
    "line2": "2 48074  87.8957 320.8769 0001985 100.2358 259.8995 13.13470044253246"
  },
  {
    "name": "ONEWEB-0178",
    "noradId": "48075",
    "line1": "1 48075U 21025AK  26164.91712837 -.00000277  00000+0 -79290-3 0  9998",
    "line2": "2 48075  87.8944 320.8860 0001690 104.1080 256.0237 13.13468179253292"
  },
  {
    "name": "ONEWEB-0108",
    "noradId": "48076",
    "line1": "1 48076U 21025AL  26164.80020088  .00000280  00000+0  73280-3 0  9992",
    "line2": "2 48076  87.8960 320.8878 0001910  90.0657 270.0691 13.13470257253209"
  },
  {
    "name": "ONEWEB-0169",
    "noradId": "48077",
    "line1": "1 48077U 21025AM  26164.90853756 -.00000124  00000+0 -37481-3 0  9992",
    "line2": "2 48077  87.8954 320.8743 0001930  96.2323 263.9026 13.13469524251873"
  },
  {
    "name": "ONEWEB-0176",
    "noradId": "48210",
    "line1": "1 48210U 21031A   26164.82980887 -.00000178  00000+0 -51537-3 0  9992",
    "line2": "2 48210  87.8962 290.3682 0001856 103.3101 256.8236 13.14502786247873"
  },
  {
    "name": "ONEWEB-0184",
    "noradId": "48211",
    "line1": "1 48211U 21031B   26164.80284875  .00000213  00000+0  53974-3 0  9990",
    "line2": "2 48211  87.8969 290.3743 0001391 123.8727 236.2535 13.14502790247840"
  },
  {
    "name": "ONEWEB-0179",
    "noradId": "48212",
    "line1": "1 48212U 21031C   26164.86598315  .00000181  00000+0  54201-4 0  9993",
    "line2": "2 48212  87.8985 287.7718 0218617 268.1536  89.4608 14.25520567248578"
  },
  {
    "name": "ONEWEB-0180",
    "noradId": "48213",
    "line1": "1 48213U 21031D   26164.88214173  .00000145  00000+0  35531-3 0  9997",
    "line2": "2 48213  87.8967 290.3546 0002112 112.2928 247.8426 13.14502638247789"
  },
  {
    "name": "ONEWEB-0218",
    "noradId": "48214",
    "line1": "1 48214U 21031E   26164.82822159 -.00000134  00000+0 -39476-3 0  9993",
    "line2": "2 48214  87.8970 290.3644 0001701 128.3745 231.7537 13.14502021247939"
  },
  {
    "name": "ONEWEB-0209",
    "noradId": "48215",
    "line1": "1 48215U 21031F   26164.89322843  .00000007  00000+0 -16513-4 0  9992",
    "line2": "2 48215  87.8961 290.3689 0002102 104.4245 255.7118 13.14501407247944"
  }
]