OBJECT_NAME,OBJECT_ID,EPOCH,MEAN_MOTION,ECCENTRICITY,INCLINATION,RA_OF_ASC_NODE,ARG_OF_PERICENTER,MEAN_ANOMALY,EPHEMERIS_TYPE,CLASSIFICATION_TYPE,NORAD_CAT_ID,ELEMENT_SET_NO,REV_AT_EPOCH,BSTAR,MEAN_MOTION_DOT,MEAN_MOTION_DDOT
ONEWEB-0158,2021-025N,2026-06-13T22:17:33.547200,13.13471224,.0001596,87.8957,320.8658,93.8325,266.2986,0,U,48054,999,25320,-.7355035E-3,-.256E-5,0
ONEWEB-0157,2021-025P,2026-06-13T21:04:26.265792,13.13469570,.00020183,87.8956,320.8817,106.5165,253.6186,0,U,48055,999,25313,.8074828E-3,.308E-5,0
ONEWEB-0162,2021-025Q,2026-06-13T22:19:47.514720,13.13470129,.00019919,87.8955,320.8720,94.6328,265.5029,0,U,48056,999,25311,-.64677353E-3,-.223E-5,0
ONEWEB-0155,2021-025R,2026-06-13T22:29:44.260512,13.13470009,.00017905,87.8955,320.8669,101.7889,258.3441,0,U,48057,999,25325,-.46027982E-3,-.155E-5,0
ONEWEB-0149,2021-025S,2026-06-13T21:11:44.825280,13.13469589,.00020246,87.8958,320.8811,93.6729,266.4631,0,U,48058,999,25305,.87598018E-3,.333E-5,0
ONEWEB-0148,2021-025T,2026-06-13T22:07:47.892576,13.13469960,.00024271,87.8951,320.8804,94.3952,265.7455,0,U,48059,999,25318,-.81897355E-3,-.286E-5,0
ONEWEB-0160,2021-025U,2026-06-13T22:32:10.419936,13.13470960,.00014901,87.8950,320.8731,73.0265,287.1028,0,U,48060,999,25313,-.21829571E-3,-.67E-6,0
ONEWEB-0163,2021-025V,2026-06-13T22:10:13.531008,13.13470664,.00019239,87.8959,320.8706,104.5432,255.5910,0,U,48061,999,25325,-.64851884E-3,-.224E-5,0
ONEWEB-0159,2021-025W,2026-06-13T21:58:02.546400,13.13470113,.00018952,87.8961,320.8652,104.0637,256.0703,0,U,48062,999,25317,-.6759331E-3,-.234E-5,0
ONEWEB-0164,2021-025X,2026-06-13T21:31:14.022048,13.13469487,.00017416,87.8961,320.8756,94.4805,265.6523,0,U,48063,999,25315,.38088384E-3,.152E-5,0
ONEWEB-0167,2021-025Y,2026-06-13T22:11:25.957536,13.13468497,.00016205,87.8951,320.8805,117.7137,242.4157,0,U,48064,999,25314,-.87808689E-3,-.308E-5,0
ONEWEB-0166,2021-025Z,2026-06-13T22:44:20.916384,13.13471615,.00020177,87.8960,320.8469,97.0152,263.1206,0,U,48065,999,25322,.40745885E-3,.162E-5,0
ONEWEB-0151,2021-025AA,2026-06-13T22:46:47.851680,13.13470503,.00017209,87.8951,320.8635,99.2169,260.9155,0,U,48066,999,25316,.5535892E-3,.215E-5,0
ONEWEB-0170,2021-025AB,2026-06-13T21:09:17.776800,13.13470067,.00013419,87.8952,320.8789,92.6922,267.4361,0,U,48067,999,25311,.88894176E-3,.337E-5,0
ONEWEB-0168,2021-025AC,2026-06-13T22:37:02.962560,13.13470165,.00019533,87.8959,320.8664,100.7035,259.4314,0,U,48068,999,25313,.3840127E-5,.14E-6,0
ONEWEB-0173,2021-025AD,2026-06-13T22:24:51.625440,13.13470048,.00018729,87.8951,320.8700,108.2838,251.8495,0,U,48069,999,25337,-.60520625E-3,-.208E-5,0
ONEWEB-0171,2021-025AE,2026-06-13T21:28:47.923104,13.13469878,.00016905,87.8950,320.8858,96.7579,263.3742,0,U,48070,999,25318,.56824243E-3,.22E-5,0
ONEWEB-0172,2021-025AF,2026-06-13T20:59:32.219808,13.13470948,.00017603,87.8956,320.8797,101.5645,258.5682,0,U,48071,999,25407,.61508053E-3,.237E-5,0
ONEWEB-0174,2021-025AG,2026-06-13T22:22:25.866048,13.13470870,.00019709,87.8954,320.8678,96.7838,263.3516,0,U,48072,999,25340,-.53563525E-3,-.183E-5,0
ONEWEB-0175,2021-025AH,2026-06-13T19:26:55.209408,13.13469958,.00014831,87.8961,320.8760,100.3996,259.7300,0,U,48073,999,25304,.87377225E-3,.332E-5,0
ONEWEB-0177,2021-025AJ,2026-06-13T21:33:40.140864,13.13470044,.00019857,87.8957,320.8769,100.2358,259.8995,0,U,48074,999,25324,.36126882E-3,.145E-5,0
ONEWEB-0178,2021-025AK,2026-06-13T22:00:39.891168,13.13468179,.00016906,87.8944,320.8860,104.1080,256.0237,0,U,48075,999,25329,-.79290175E-3,-.277E-5,0
ONEWEB-0108,2021-025AL,2026-06-13T19:12:17.356032,13.13470257,.00019103,87.8960,320.8878,90.0657,270.0691,0,U,48076,999,25320,.73280063E-3,.28E-5,0
ONEWEB-0169,2021-025AM,2026-06-13T21:48:17.645184,13.13469524,.00019305,87.8954,320.8743,96.2323,263.9026,0,U,48077,999,25187,-.37480518E-3,-.124E-5,0
ONEWEB-0176,2021-031A,2026-06-13T19:54:55.486368,13.14502786,.00018564,87.8962,290.3682,103.3101,256.8236,0,U,48210,999,24787,-.51536548E-3,-.178E-5,0
ONEWEB-0184,2021-031B,2026-06-13T19:16:06.132000,13.14502790,.00013915,87.8969,290.3743,123.8727,236.2535,0,U,48211,999,24784,.53973657E-3,.213E-5,0
ONEWEB-0179,2021-031C,2026-06-13T20:47:00.944160,14.25520567,.0218617,87.8985,287.7718,268.1536,89.4608,0,U,48212,999,24857,.54201165E-4,.181E-5,0
ONEWEB-0180,2021-031D,2026-06-13T21:10:17.045472,13.14502638,.00021127,87.8967,290.3546,112.2928,247.8426,0,U,48213,999,24778,.35531234E-3,.145E-5,0
ONEWEB-0218,2021-031E,2026-06-13T19:52:38.345376,13.14502021,.00017018,87.8970,290.3644,128.3745,231.7537,0,U,48214,999,24793,-.39476306E-3,-.134E-5,0
ONEWEB-0209,2021-031F,2026-06-13T21:26:14.936352,13.14501407,.00021022,87.8961,290.3689,104.4245,255.7118,0,U,48215,999,24794,-.16512747E-4,.7E-7,0
